FALCONSAT-10            
1 58291U 23174AM  26068.70247784  .00006748  00000+0  25969-3 0  9991
2 58291  97.3865 145.7938 0008932 169.5942 190.5483 15.26670596129582
STARLINK-35816          
1 66499U 25263Q   26068.15693726  .00038120  00000+0  13878-2 0  9995
2 66499  43.0030 354.0351 0001765 277.2488  82.8163 15.27576912 18815
