[{"OBJECT_NAME":"FALCONSAT-10","OBJECT_ID":"2023-174AM","EPOCH":"2026-03-09T16:51:34.085376","MEAN_MOTION":15.26670596,"ECCENTRICITY":0.00089318,"INCLINATION":97.3865,"RA_OF_ASC_NODE":145.7938,"ARG_OF_PERICENTER":169.5942,"MEAN_ANOMALY":190.5483,"EPHEMERIS_TYPE":0,"CLASSIFICATION_TYPE":"U","NORAD_CAT_ID":58291,"ELEMENT_SET_NO":999,"REV_AT_EPOCH":12958,"BSTAR":0.00025968794,"MEAN_MOTION_DOT":6.748e-5,"MEAN_MOTION_DDOT":0},{"OBJECT_NAME":"STARLINK-35816","OBJECT_ID":"2025-263Q","EPOCH":"2026-03-09T03:45:59.379264","MEAN_MOTION":15.27576912,"ECCENTRICITY":0.00017652,"INCLINATION":43.003,"RA_OF_ASC_NODE":354.0351,"ARG_OF_PERICENTER":277.2488,"MEAN_ANOMALY":82.8163,"EPHEMERIS_TYPE":0,"CLASSIFICATION_TYPE":"U","NORAD_CAT_ID":66499,"ELEMENT_SET_NO":999,"REV_AT_EPOCH":1881,"BSTAR":0.0013877577,"MEAN_MOTION_DOT":0.0003812,"MEAN_MOTION_DDOT":0}]
